{"type": "FeatureCollection", "features": [ {"type": "Feature", "properties": {"norad_id": 38068, "name": "COSMOS 2251 DEB", "group": "cosmos-2251-debris", "lat": -16.969886064130495, "lon": 135.00841071382501, "alt_km": 792.311429937221, "timestamp": "2025-12-11T18:59:46.473613+00:00", "meta": {"OBJECT_NAME": "COSMOS 2251 DEB", "OBJECT_ID": "1993-036BSA", "EPOCH": "2025-11-26T00:12:22.263264", "MEAN_MOTION": 14.35960004, "ECCENTRICITY": 0.00240903, "INCLINATION": 74.0219, "RA_OF_ASC_NODE": 338.9788, "ARG_OF_PERICENTER": 72.1007, "MEAN_ANOMALY": 288.2769, "EPHEMERIS_TYPE": 0, "CLASSIFICATION_TYPE": "U", "NORAD_CAT_ID": 38068, "ELEMENT_SET_NO": 999, "REV_AT_EPOCH": 66406, "BSTAR": 0.00028750999, "MEAN_MOTION_DOT": 8.11e-06, "MEAN_MOTION_DDOT": 0}, "tle": {"line1": "1 38068U 93036BSA 25330.00859101  .00000811  00000+0  28751-3 0  9998", "line2": "2 38068  74.0219 338.9788 0024090  72.1007 288.2769 14.35960004664064"}}, "geometry": {"type": "Point", "coordinates": [135.00841071382501, -16.969886064130495]}}, {"type": "Feature", "properties": {"norad_id": 38197, "name": "COSMOS 2251 DEB", "group": "cosmos-2251-debris", "lat": 53.537512239903975, "lon": 21.85917735027605, "alt_km": 731.936247592479, "timestamp": "2025-12-11T18:59:46.473623+00:00", "meta": {"OBJECT_NAME": "COSMOS 2251 DEB", "OBJECT_ID": "1993-036BSM", "EPOCH": "2025-12-11T07:19:51.756096", "MEAN_MOTION": 14.73906007, "ECCENTRICITY": 0.0126564, "INCLINATION": 73.9383, "RA_OF_ASC_NODE": 359.8657, "ARG_OF_PERICENTER": 237.7446, "MEAN_ANOMALY": 121.1412, "EPHEMERIS_TYPE": 0, "CLASSIFICATION_TYPE": "U", "NORAD_CAT_ID": 38197, "ELEMENT_SET_NO": 999, "REV_AT_EPOCH": 85734, "BSTAR": 0.0083948544, "MEAN_MOTION_DOT": 0.00063118, "MEAN_MOTION_DDOT": 0}, "tle": {"line1": "1 38197U 93036BSM 25345.30546014  .00063118  00000+0  83949-2 0  9994", "line2": "2 38197  73.9383 359.8657 0126564 237.7446 121.1412 14.73906007857349"}}, "geometry": {"type": "Point", "coordinates": [21.85917735027605, 53.537512239903975]}}, {"type": "Feature", "properties": {"norad_id": 38199, "name": "COSMOS 2251 DEB", "group": "cosmos-2251-debris", "lat": -34.45154783463329, "lon": -104.86651322396361, "alt_km": 1210.3222717342042, "timestamp": "2025-12-11T18:59:46.473633+00:00", "meta": {"OBJECT_NAME": "COSMOS 2251 DEB", "OBJECT_ID": "1993-036BSP", "EPOCH": "2025-12-09T13:08:57.601824", "MEAN_MOTION": 13.64788419, "ECCENTRICITY": 0.0369499, "INCLINATION": 73.956, "RA_OF_ASC_NODE": 67.4327, "ARG_OF_PERICENTER": 354.5631, "MEAN_ANOMALY": 5.1515, "EPHEMERIS_TYPE": 0, "CLASSIFICATION_TYPE": "U", "NORAD_CAT_ID": 38199, "ELEMENT_SET_NO": 999, "REV_AT_EPOCH": 60978, "BSTAR": 0.00073909, "MEAN_MOTION_DOT": 9.26e-06, "MEAN_MOTION_DDOT": 0}, "tle": {"line1": "1 38199U 93036BSP 25343.54788891  .00000926  00000+0  73909-3 0  9995", "line2": "2 38199  73.9560  67.4327 0369499 354.5631   5.1515 13.64788419609786"}}, "geometry": {"type": "Point", "coordinates": [-104.86651322396361, -34.45154783463329]}}, {"type": "Feature", "properties": {"norad_id": 38208, "name": "COSMOS 2251 DEB", "group": "cosmos-2251-debris", "lat": -26.53354940052327, "lon": 72.56101614098475, "alt_km": 624.5316725604616, "timestamp": "2025-12-11T18:59:46.473644+00:00", "meta": {"OBJECT_NAME": "COSMOS 2251 DEB", "OBJECT_ID": "1993-036BSY", "EPOCH": "2025-12-09T13:47:05.669952", "MEAN_MOTION": 14.8367688, "ECCENTRICITY": 0.0002644, "INCLINATION": 74.0057, "RA_OF_ASC_NODE": 85.1942, "ARG_OF_PERICENTER": 169.4562, "MEAN_ANOMALY": 205.1363, "EPHEMERIS_TYPE": 0, "CLASSIFICATION_TYPE": "U", "NORAD_CAT_ID": 38208, "ELEMENT_SET_NO": 999, "REV_AT_EPOCH": 71112, "BSTAR": 0.003526, "MEAN_MOTION_DOT": 0.00029227, "MEAN_MOTION_DDOT": 0}, "tle": {"line1": "1 38208U 93036BSY 25343.57437118  .00029227  00000+0  35260-2 0  9994", "line2": "2 38208  74.0057  85.1942 0002644 169.4562 205.1363 14.83676880711127"}}, "geometry": {"type": "Point", "coordinates": [72.56101614098475, -26.53354940052327]}}, {"type": "Feature", "properties": {"norad_id": 38212, "name": "COSMOS 2251 DEB", "group": "cosmos-2251-debris", "lat": -52.44438575535999, "lon": 56.62817982442412, "alt_km": 703.8144095668913, "timestamp": "2025-12-11T18:59:46.473655+00:00", "meta": {"OBJECT_NAME": "COSMOS 2251 DEB", "OBJECT_ID": "1993-036BTC", "EPOCH": "2025-12-08T13:15:26.464032", "MEAN_MOTION": 14.77639869, "ECCENTRICITY": 0.0092747, "INCLINATION": 74.0522, "RA_OF_ASC_NODE": 84.8103, "ARG_OF_PERICENTER": 153.0073, "MEAN_ANOMALY": 207.5971, "EPHEMERIS_TYPE": 0, "CLASSIFICATION_TYPE": "U", "NORAD_CAT_ID": 38212, "ELEMENT_SET_NO": 999, "REV_AT_EPOCH": 81248, "BSTAR": 0.00080388, "MEAN_MOTION_DOT": 6.149e-05, "MEAN_MOTION_DDOT": 0}, "tle": {"line1": "1 38212U 93036BTC 25342.55238963  .00006149  00000+0  80388-3 0  9993", "line2": "2 38212  74.0522  84.8103 0092747 153.0073 207.5971 14.77639869812484"}}, "geometry": {"type": "Point", "coordinates": [56.62817982442412, -52.44438575535999]}}, {"type": "Feature", "properties": {"norad_id": 38220, "name": "COSMOS 2251 DEB", "group": "cosmos-2251-debris", "lat": 39.01793947129758, "lon": 83.63575588414112, "alt_km": 582.8762286871752, "timestamp": "2025-12-11T18:59:46.473665+00:00", "meta": {"OBJECT_NAME": "COSMOS 2251 DEB", "OBJECT_ID": "1993-036BTL", "EPOCH": "2025-12-10T12:15:11.867328", "MEAN_MOTION": 14.92691661, "ECCENTRICITY": 0.00043841, "INCLINATION": 74.0139, "RA_OF_ASC_NODE": 72.7799, "ARG_OF_PERICENTER": 56.4542, "MEAN_ANOMALY": 303.7059, "EPHEMERIS_TYPE": 0, "CLASSIFICATION_TYPE": "U", "NORAD_CAT_ID": 38220, "ELEMENT_SET_NO": 999, "REV_AT_EPOCH": 71337, "BSTAR": 0.0048679198, "MEAN_MOTION_DOT": 0.00050565, "MEAN_MOTION_DDOT": 0}, "tle": {"line1": "1 38220U 93036BTL 25344.51055402  .00050565  00000+0  48679-2 0  9992", "line2": "2 38220  74.0139  72.7799 0004384  56.4542 303.7059 14.92691661713370"}}, "geometry": {"type": "Point", "coordinates": [83.63575588414112, 39.01793947129758]}}, {"type": "Feature", "properties": {"norad_id": 38479, "name": "COSMOS 2251 DEB", "group": "cosmos-2251-debris", "lat": -2.7199105374805357, "lon": -174.7477806687527, "alt_km": 738.6188153119265, "timestamp": "2025-12-11T18:59:46.473676+00:00", "meta": {"OBJECT_NAME": "COSMOS 2251 DEB", "OBJECT_ID": "1993-036BTP", "EPOCH": "2025-12-10T06:49:46.172352", "MEAN_MOTION": 14.38253174, "ECCENTRICITY": 0.0084224, "INCLINATION": 74.007, "RA_OF_ASC_NODE": 188.8137, "ARG_OF_PERICENTER": 298.3144, "MEAN_ANOMALY": 178.6489, "EPHEMERIS_TYPE": 0, "CLASSIFICATION_TYPE": "U", "NORAD_CAT_ID": 38479, "ELEMENT_SET_NO": 999, "REV_AT_EPOCH": 64652, "BSTAR": 0.0026738, "MEAN_MOTION_DOT": 8.453e-05, "MEAN_MOTION_DDOT": 0}, "tle": {"line1": "1 38479U 93036BTP 25344.28456218  .00008453  00000+0  26738-2 0  9993", "line2": "2 38479  74.0070 188.8137 0084224 298.3144 178.6489 14.38253174646522"}}, "geometry": {"type": "Point", "coordinates": [-174.7477806687527, -2.7199105374805357]}}, {"type": "Feature", "properties": {"norad_id": 38481, "name": "COSMOS 2251 DEB", "group": "cosmos-2251-debris", "lat": 48.55092565059468, "lon": 28.24138099470566, "alt_km": 937.8661704931501, "timestamp": "2025-12-11T18:59:46.473686+00:00", "meta": {"OBJECT_NAME": "COSMOS 2251 DEB", "OBJECT_ID": "1993-036BTR", "EPOCH": "2025-12-10T18:39:21.413952", "MEAN_MOTION": 13.94808879, "ECCENTRICITY": 0.02344105, "INCLINATION": 73.9331, "RA_OF_ASC_NODE": 10.9475, "ARG_OF_PERICENTER": 311.5807, "MEAN_ANOMALY": 46.5435, "EPHEMERIS_TYPE": 0, "CLASSIFICATION_TYPE": "U", "NORAD_CAT_ID": 38481, "ELEMENT_SET_NO": 999, "REV_AT_EPOCH": 59033, "BSTAR": 0.0023887459, "MEAN_MOTION_DOT": 4.004e-05, "MEAN_MOTION_DDOT": 0}, "tle": {"line1": "1 38481U 93036BTR 25344.77733118  .00004004  00000+0  23887-2 0  9997", "line2": "2 38481  73.9331  10.9475 0234410 311.5807  46.5435 13.94808879590331"}}, "geometry": {"type": "Point", "coordinates": [28.24138099470566, 48.55092565059468]}}, {"type": "Feature", "properties": {"norad_id": 38483, "name": "COSMOS 2251 DEB", "group": "cosmos-2251-debris", "lat": 32.65055752325526, "lon": 23.85516791605236, "alt_km": 785.9606896056603, "timestamp": "2025-12-11T18:59:46.473697+00:00", "meta": {"OBJECT_NAME": "COSMOS 2251 DEB", "OBJECT_ID": "1993-036BTT", "EPOCH": "2025-12-09T19:47:02.543136", "MEAN_MOTION": 14.28773008, "ECCENTRICITY": 0.01104951, "INCLINATION": 74.2621, "RA_OF_ASC_NODE": 16.9647, "ARG_OF_PERICENTER": 123.4818, "MEAN_ANOMALY": 237.6953, "EPHEMERIS_TYPE": 0, "CLASSIFICATION_TYPE": "U", "NORAD_CAT_ID": 38483, "ELEMENT_SET_NO": 999, "REV_AT_EPOCH": 63436, "BSTAR": 0.0013200119, "MEAN_MOTION_DOT": 3.528e-05, "MEAN_MOTION_DDOT": 0}, "tle": {"line1": "1 38483U 93036BTT 25343.82433499  .00003528  00000+0  13200-2 0  9991", "line2": "2 38483  74.2621  16.9647 0110495 123.4818 237.6953 14.28773008634367"}}, "geometry": {"type": "Point", "coordinates": [23.85516791605236, 32.65055752325526]}}, {"type": "Feature", "properties": {"norad_id": 38486, "name": "COSMOS 2251 DEB", "group": "cosmos-2251-debris", "lat": -42.24900152273748, "lon": 41.884695452913995, "alt_km": 669.7091621329555, "timestamp": "2025-12-11T18:59:46.473708+00:00", "meta": {"OBJECT_NAME": "COSMOS 2251 DEB", "OBJECT_ID": "1993-036BTW", "EPOCH": "2025-12-09T09:44:58.569216", "MEAN_MOTION": 14.73093158, "ECCENTRICITY": 0.0030131, "INCLINATION": 73.9406, "RA_OF_ASC_NODE": 211.3897, "ARG_OF_PERICENTER": 356.1257, "MEAN_ANOMALY": 183.7867, "EPHEMERIS_TYPE": 0, "CLASSIFICATION_TYPE": "U", "NORAD_CAT_ID": 38486, "ELEMENT_SET_NO": 999, "REV_AT_EPOCH": 75385, "BSTAR": 0.0034479645, "MEAN_MOTION_DOT": 0.00022398, "MEAN_MOTION_DDOT": 0}, "tle": {"line1": "1 38486U 93036BTW 25343.40623344  .00022398  00000+0  34480-2 0  9997", "line2": "2 38486  73.9406 211.3897 0030131 356.1257 183.7867 14.73093158753857"}}, "geometry": {"type": "Point", "coordinates": [41.884695452913995, -42.24900152273748]}}]}